{
  "norad_id": 54192,
  "name": "STARLINK-5268",
  "history": [
    {
      "epoch": "2026-03-28T18:42:17.674272Z",
      "apogee_km": 540.6116293208061,
      "perigee_km": 538.8233639334276,
      "latitude_deg": -1.3461019722456194e-05,
      "longitude_deg": 161.38022797424912,
      "height_km": 540.642134634095,
      "semi_major_axis_km": 6917.8544966271165,
      "eccentricity": 0.00012925,
      "inclination_deg": 53.2168,
      "raan_deg": 268.1488,
      "arg_perigee_deg": 91.852,
      "mean_anomaly_deg": 268.262,
      "mean_motion_rev_day": 15.08848471
    }
  ]
}